FLOCK 4BE-1
1 60518U 24149BC  25239.79241392  .00016238  00000+0  55031-3 0  9994
2 60518  97.4056 318.3666 0003949 249.9061 110.1755 15.30628475 57319
